[Satellite]
VERSION=1.1
NAME=FALCON 9 DEB
NICKNAME=FALCON 9 DEB
TLE1=1 54019U 22125BH  22297.00377713  .00390218  76013-4  74194-3 0  9993
TLE2=2 54019  53.2227   0.2204 0008607 337.4896  22.5757 16.00090221  3193
STATUS=0
